{"type": "FeatureCollection", "features": [ {"type": "Feature", "properties": {"norad_id": 66796, "name": "STARLINK-35964", "group": "last-30-days", "lat": -42.96491567857839, "lon": 172.00173162262368, "alt_km": 262.0843671410403, "timestamp": "2025-12-11T07:02:22.478841+00:00", "meta": {"OBJECT_NAME": "STARLINK-35964", "OBJECT_ID": "2025-278F", "EPOCH": "2025-12-10T12:00:02.999808", "MEAN_MOTION": 16.06931937, "ECCENTRICITY": 0.0002154, "INCLINATION": 42.9968, "RA_OF_ASC_NODE": 265.4876, "ARG_OF_PERICENTER": 266.1916, "MEAN_ANOMALY": 92.8735, "EPHEMERIS_TYPE": 0, "CLASSIFICATION_TYPE": "U", "NORAD_CAT_ID": 66796, "ELEMENT_SET_NO": 999, "REV_AT_EPOCH": 243, "BSTAR": -0.0015785777, "MEAN_MOTION_DOT": -0.01274001, "MEAN_MOTION_DDOT": 0.00055193252}, "tle": {"line1": "1 66796U 25278F   25344.50003472 -.01274001  55193-3 -15786-2 0  9999", "line2": "2 66796  42.9968 265.4876 0002154 266.1916  92.8735 16.06931937  2433"}}, "geometry": {"type": "Point", "coordinates": [172.00173162262368, -42.96491567857839]}}, {"type": "Feature", "properties": {"norad_id": 66797, "name": "STARLINK-36099", "group": "last-30-days", "lat": 23.216428885843452, "lon": -71.53946157485656, "alt_km": 297.771759948977, "timestamp": "2025-12-11T07:02:22.478851+00:00", "meta": {"OBJECT_NAME": "STARLINK-36099", "OBJECT_ID": "2025-278G", "EPOCH": "2025-12-10T12:00:02.999808", "MEAN_MOTION": 15.92615926, "ECCENTRICITY": 0.00019345, "INCLINATION": 42.9988, "RA_OF_ASC_NODE": 265.9843, "ARG_OF_PERICENTER": 265.3236, "MEAN_ANOMALY": 259.0392, "EPHEMERIS_TYPE": 0, "CLASSIFICATION_TYPE": "U", "NORAD_CAT_ID": 66797, "ELEMENT_SET_NO": 999, "REV_AT_EPOCH": 265, "BSTAR": -0.0036510482, "MEAN_MOTION_DOT": -0.01295106, "MEAN_MOTION_DDOT": 0.00048770519}, "tle": {"line1": "1 66797U 25278G   25344.50003472 -.01295106  48771-3 -36510-2 0  9991", "line2": "2 66797  42.9988 265.9843 0001934 265.3236 259.0392 15.92615926  2657"}}, "geometry": {"type": "Point", "coordinates": [-71.53946157485656, 23.216428885843452]}}, {"type": "Feature", "properties": {"norad_id": 66798, "name": "STARLINK-36041", "group": "last-30-days", "lat": 24.37681931400976, "lon": -69.8554910775855, "alt_km": 297.58318303923716, "timestamp": "2025-12-11T07:02:22.478864+00:00", "meta": {"OBJECT_NAME": "STARLINK-36041", "OBJECT_ID": "2025-278H", "EPOCH": "2025-12-10T12:00:02.999808", "MEAN_MOTION": 15.92665669, "ECCENTRICITY": 0.00018658, "INCLINATION": 42.9988, "RA_OF_ASC_NODE": 265.9797, "ARG_OF_PERICENTER": 262.6359, "MEAN_ANOMALY": 263.5435, "EPHEMERIS_TYPE": 0, "CLASSIFICATION_TYPE": "U", "NORAD_CAT_ID": 66798, "ELEMENT_SET_NO": 999, "REV_AT_EPOCH": 243, "BSTAR": -0.0036764343, "MEAN_MOTION_DOT": -0.01307366, "MEAN_MOTION_DDOT": 0.00049642953}, "tle": {"line1": "1 66798U 25278H   25344.50003472 -.01307366  49643-3 -36764-2 0  9994", "line2": "2 66798  42.9988 265.9797 0001865 262.6359 263.5435 15.92665669  2438"}}, "geometry": {"type": "Point", "coordinates": [-69.8554910775855, 24.37681931400976]}}, {"type": "Feature", "properties": {"norad_id": 66799, "name": "STARLINK-36044", "group": "last-30-days", "lat": 25.679782677763548, "lon": -67.89226883685336, "alt_km": 297.1977445490502, "timestamp": "2025-12-11T07:02:22.478874+00:00", "meta": {"OBJECT_NAME": "STARLINK-36044", "OBJECT_ID": "2025-278J", "EPOCH": "2025-12-10T12:00:02.999808", "MEAN_MOTION": 15.92706098, "ECCENTRICITY": 0.00019188, "INCLINATION": 42.9987, "RA_OF_ASC_NODE": 265.9746, "ARG_OF_PERICENTER": 266.1993, "MEAN_ANOMALY": 262.0507, "EPHEMERIS_TYPE": 0, "CLASSIFICATION_TYPE": "U", "NORAD_CAT_ID": 66799, "ELEMENT_SET_NO": 999, "REV_AT_EPOCH": 259, "BSTAR": -0.0036432455, "MEAN_MOTION_DOT": -0.01298426, "MEAN_MOTION_DDOT": 0.00049042595}, "tle": {"line1": "1 66799U 25278J   25344.50003472 -.01298426  49043-3 -36432-2 0  9997", "line2": "2 66799  42.9987 265.9746 0001918 266.1993 262.0507 15.92706098  2597"}}, "geometry": {"type": "Point", "coordinates": [-67.89226883685336, 25.679782677763548]}}, {"type": "Feature", "properties": {"norad_id": 66800, "name": "STARLINK-35996", "group": "last-30-days", "lat": 28.17786303478344, "lon": -63.87618765708865, "alt_km": 296.6431232673958, "timestamp": "2025-12-11T07:02:22.478886+00:00", "meta": {"OBJECT_NAME": "STARLINK-35996", "OBJECT_ID": "2025-278K", "EPOCH": "2025-12-10T12:00:02.999808", "MEAN_MOTION": 15.92809346, "ECCENTRICITY": 0.00019277, "INCLINATION": 42.9985, "RA_OF_ASC_NODE": 265.9639, "ARG_OF_PERICENTER": 268.0121, "MEAN_ANOMALY": 264.3563, "EPHEMERIS_TYPE": 0, "CLASSIFICATION_TYPE": "U", "NORAD_CAT_ID": 66800, "ELEMENT_SET_NO": 999, "REV_AT_EPOCH": 238, "BSTAR": -0.0036820454, "MEAN_MOTION_DOT": -0.0131916, "MEAN_MOTION_DDOT": 0.0005053644}, "tle": {"line1": "1 66800U 25278K   25344.50003472 -.01319160  50536-3 -36820-2 0  9999", "line2": "2 66800  42.9985 265.9639 0001927 268.0121 264.3563 15.92809346  2387"}}, "geometry": {"type": "Point", "coordinates": [-63.87618765708865, 28.17786303478344]}}, {"type": "Feature", "properties": {"norad_id": 66801, "name": "STARLINK-36080", "group": "last-30-days", "lat": 33.84473317272018, "lon": -52.97063353609081, "alt_km": 295.4573197056452, "timestamp": "2025-12-11T07:02:22.478896+00:00", "meta": {"OBJECT_NAME": "STARLINK-36080", "OBJECT_ID": "2025-278L", "EPOCH": "2025-12-10T12:00:02.999808", "MEAN_MOTION": 15.9306103, "ECCENTRICITY": 0.00019629, "INCLINATION": 42.9984, "RA_OF_ASC_NODE": 265.9376, "ARG_OF_PERICENTER": 266.0065, "MEAN_ANOMALY": 276.6526, "EPHEMERIS_TYPE": 0, "CLASSIFICATION_TYPE": "U", "NORAD_CAT_ID": 66801, "ELEMENT_SET_NO": 999, "REV_AT_EPOCH": 259, "BSTAR": -0.0037360121, "MEAN_MOTION_DOT": -0.0135593, "MEAN_MOTION_DDOT": 0.00053276585}, "tle": {"line1": "1 66801U 25278L   25344.50003472 -.01355930  53277-3 -37360-2 0  9990", "line2": "2 66801  42.9984 265.9376 0001962 266.0065 276.6526 15.93061030  2598"}}, "geometry": {"type": "Point", "coordinates": [-52.97063353609081, 33.84473317272018]}}, {"type": "Feature", "properties": {"norad_id": 66802, "name": "STARLINK-35604", "group": "last-30-days", "lat": 26.824868740492942, "lon": -66.09631680069238, "alt_km": 297.0192887882522, "timestamp": "2025-12-11T07:02:22.478907+00:00", "meta": {"OBJECT_NAME": "STARLINK-35604", "OBJECT_ID": "2025-278M", "EPOCH": "2025-12-10T12:00:02.999808", "MEAN_MOTION": 15.92752022, "ECCENTRICITY": 0.00018897, "INCLINATION": 42.9987, "RA_OF_ASC_NODE": 265.9697, "ARG_OF_PERICENTER": 263.3761, "MEAN_ANOMALY": 266.7397, "EPHEMERIS_TYPE": 0, "CLASSIFICATION_TYPE": "U", "NORAD_CAT_ID": 66802, "ELEMENT_SET_NO": 999, "REV_AT_EPOCH": 259, "BSTAR": -0.0036574079, "MEAN_MOTION_DOT": -0.01306524, "MEAN_MOTION_DDOT": 0.00049626119}, "tle": {"line1": "1 66802U 25278M   25344.50003472 -.01306524  49626-3 -36574-2 0  9995", "line2": "2 66802  42.9987 265.9697 0001889 263.3761 266.7397 15.92752022  2592"}}, "geometry": {"type": "Point", "coordinates": [-66.09631680069238, 26.824868740492942]}}, {"type": "Feature", "properties": {"norad_id": 66803, "name": "STARLINK-35565", "group": "last-30-days", "lat": 29.26803833760278, "lon": -61.99958077461931, "alt_km": 296.55702410962385, "timestamp": "2025-12-11T07:02:22.478917+00:00", "meta": {"OBJECT_NAME": "STARLINK-35565", "OBJECT_ID": "2025-278N", "EPOCH": "2025-12-10T12:00:02.999808", "MEAN_MOTION": 15.92863576, "ECCENTRICITY": 0.00019488, "INCLINATION": 42.9986, "RA_OF_ASC_NODE": 265.9594, "ARG_OF_PERICENTER": 263.7247, "MEAN_ANOMALY": 270.5083, "EPHEMERIS_TYPE": 0, "CLASSIFICATION_TYPE": "U", "NORAD_CAT_ID": 66803, "ELEMENT_SET_NO": 999, "REV_AT_EPOCH": 268, "BSTAR": -0.0037270771, "MEAN_MOTION_DOT": -0.01338888, "MEAN_MOTION_DDOT": 0.00051956393}, "tle": {"line1": "1 66803U 25278N   25344.50003472 -.01338888  51956-3 -37271-2 0  9998", "line2": "2 66803  42.9986 265.9594 0001948 263.7247 270.5083 15.92863576  2689"}}, "geometry": {"type": "Point", "coordinates": [-61.99958077461931, 29.26803833760278]}}, {"type": "Feature", "properties": {"norad_id": 66804, "name": "STARLINK-36038", "group": "last-30-days", "lat": 30.612727492579033, "lon": -59.56023671401604, "alt_km": 296.0732890948457, "timestamp": "2025-12-11T07:02:22.478929+00:00", "meta": {"OBJECT_NAME": "STARLINK-36038", "OBJECT_ID": "2025-278P", "EPOCH": "2025-12-10T12:00:02.999808", "MEAN_MOTION": 15.92904376, "ECCENTRICITY": 0.00018931, "INCLINATION": 42.9988, "RA_OF_ASC_NODE": 265.9535, "ARG_OF_PERICENTER": 268.0675, "MEAN_ANOMALY": 268.5211, "EPHEMERIS_TYPE": 0, "CLASSIFICATION_TYPE": "U", "NORAD_CAT_ID": 66804, "ELEMENT_SET_NO": 999, "REV_AT_EPOCH": 259, "BSTAR": -0.0036745853, "MEAN_MOTION_DOT": -0.0132303, "MEAN_MOTION_DDOT": 0.00050855317}, "tle": {"line1": "1 66804U 25278P   25344.50003472 -.01323030  50855-3 -36746-2 0  9995", "line2": "2 66804  42.9988 265.9535 0001893 268.0675 268.5211 15.92904376  2593"}}, "geometry": {"type": "Point", "coordinates": [-59.56023671401604, 30.612727492579033]}}, {"type": "Feature", "properties": {"norad_id": 66805, "name": "STARLINK-36049", "group": "last-30-days", "lat": 32.78654058139626, "lon": -55.26060130713839, "alt_km": 295.70717244816933, "timestamp": "2025-12-11T07:02:22.478941+00:00", "meta": {"OBJECT_NAME": "STARLINK-36049", "OBJECT_ID": "2025-278Q", "EPOCH": "2025-12-10T12:00:02.999808", "MEAN_MOTION": 15.93012708, "ECCENTRICITY": 0.00019388, "INCLINATION": 42.9986, "RA_OF_ASC_NODE": 265.9431, "ARG_OF_PERICENTER": 265.1603, "MEAN_ANOMALY": 275.4375, "EPHEMERIS_TYPE": 0, "CLASSIFICATION_TYPE": "U", "NORAD_CAT_ID": 66805, "ELEMENT_SET_NO": 999, "REV_AT_EPOCH": 259, "BSTAR": -0.0037308784, "MEAN_MOTION_DOT": -0.01350677, "MEAN_MOTION_DDOT": 0.00052874202}, "tle": {"line1": "1 66805U 25278Q   25344.50003472 -.01350677  52874-3 -37309-2 0  9992", "line2": "2 66805  42.9986 265.9431 0001938 265.1603 275.4375 15.93012708  2594"}}, "geometry": {"type": "Point", "coordinates": [-55.26060130713839, 32.78654058139626]}}]}